GLOBALSTAR M023         
1 25621U 99004A   24298.76822792 -.00000051  00000+0  29514-3 0  9996
2 25621  52.0124  50.2867 0009516 329.7121 185.7041 12.62480348185992
GLOBALSTAR M040         
1 25622U 99004B   24298.73302663 -.00000059  00000+0  24997-3 0  9992
2 25622  51.9932  54.1958 0000670 175.6590 350.6534 12.61987631185527
GLOBALSTAR M036         
1 25623U 99004C   24298.86074199 -.00000055  00000+0  40349-3 0  9992
2 25623  51.9936 140.5817 0010325 325.9482 135.5085 11.86578972151045
GLOBALSTAR M038         
1 25624U 99004D   24298.69356125 -.00000051  00000+0  36298-3 0  9990
2 25624  52.0000  29.7565 0001237 277.2636 234.6016 12.32511343173332
GLOBALSTAR M022         
1 25649U 99012A   24298.83314372 -.00000062  00000+0  30226-3 0  9997
2 25649  52.0037 210.6972 0003177  62.6184 339.4835 12.02489782148064
GLOBALSTAR M041         
1 25650U 99012B   24298.75435440 -.00000063  00000+0  28261-3 0  9997
2 25650  52.0010  85.1808 0002149 199.3517 160.7238 11.96659612150097
GLOBALSTAR M046         
1 25651U 99012C   24298.88779337  .00000007  00000+0  10523-2 0  9996
2 25651  52.0037 169.2729 0002772 122.1558 322.9881 12.09400425155197
GLOBALSTAR M037         
1 25652U 99012D   24298.87778220 -.00000052  00000+0  28888-3 0  9991
2 25652  51.9991 180.6601 0002700  40.9859  39.4058 12.62422255181552
